QIANFAN-25              
1 61558U 24185G   25282.94975557  .00000473  00000+0  28116-3 0  9999
2 61558  88.9751  85.4051 0010032 136.9404 223.2565 14.05816157 60549
QIANFAN-26              
1 61559U 24185H   25282.98420999  .00000273  00000+0  26043-3 0  9994
2 61559  88.9751  86.6293 0005253 184.7852 175.3265 13.77758265 59891
QIANFAN-27              
1 61560U 24185J   25282.94975699  .00000649  00000+0  25993-3 0  9994
2 61560  88.9749  84.4195 0009638 129.4359 230.7689 14.27209135 61067
QIANFAN-28              
1 61561U 24185K   25282.96149623  .00001034  00000+0  41253-3 0  9993
2 61561  88.9766  84.4164 0008740 128.7804 231.4173 14.27831264 61074
QIANFAN-29              
1 61562U 24185L   25282.97028218  .00000205  00000+0  29966-3 0  9997
2 61562  88.9728  87.8980 0008717 229.1175 130.9222 13.50978099 59187
QIANFAN-30              
1 61563U 24185M   25282.97100227  .00000193  00000+0  28531-3 0  9992
2 61563  88.9747  87.3988 0006581 208.2543 151.8251 13.49955623 59467
QIANFAN-31              
1 61564U 24185N   25282.94523241  .00000207  00000+0  27038-3 0  9992
2 61564  88.9733  87.3045 0006291 203.3531 156.7340 13.57928489 59505
QIANFAN-32              
1 61565U 24185P   25282.97474557  .00000189  00000+0  27471-3 0  9991
2 61565  88.9790  87.5133 0007757 241.2914 118.7458 13.50707202 59434
